OBJECT_NAME,OBJECT_ID,EPOCH,MEAN_MOTION,ECCENTRICITY,INCLINATION,RA_OF_ASC_NODE,ARG_OF_PERICENTER,MEAN_ANOMALY,EPHEMERIS_TYPE,CLASSIFICATION_TYPE,NORAD_CAT_ID,ELEMENT_SET_NO,REV_AT_EPOCH,BSTAR,MEAN_MOTION_DOT,MEAN_MOTION_DDOT
INTELSAT 902 (IS-902),2001-039A,2026-07-18T11:16:35.508288,1.00271441,.00041748,6.1927,71.3972,45.5994,298.3258,0,U,26900,999,9100,0,-.293E-5,0
INTELSAT 904 (IS-904),2002-007A,2026-07-18T09:39:17.963136,1.00270363,.00054112,6.9961,68.8066,27.4080,313.3302,0,U,27380,999,5207,0,-.236E-5,0
DIRECTV 5 (TEMPO 1),2002-023A,2026-07-18T10:05:38.593248,1.00271908,.00032328,4.9557,74.9200,49.6609,212.9375,0,U,27426,999,8843,0,-.67E-6,0
INTELSAT 905 (IS-905),2002-027A,2026-07-18T17:42:17.610048,1.00272756,.0003555,6.8308,69.4163,48.8146,306.6679,0,U,27438,999,5167,0,.84E-6,0
GALAXY 3C (G-3C),2002-030A,2026-07-17T19:39:58.557600,1.00270872,.00016533,3.8113,77.5805,31.4456,26.7582,0,U,27445,999,4680,0,-.163E-5,0
INTELSAT 906 (IS-906),2002-041A,2026-07-18T18:52:21.848736,1.00273884,.0003681,5.8796,72.5283,29.6139,181.7077,0,U,27513,999,8734,0,.3E-7,0
GALAXY 13 (HORIZONS-1),2003-044A,2026-07-18T17:38:40.458336,1.00272872,.0002104,1.4978,83.4547,36.4231,291.3131,0,U,27954,999,4688,0,.125E-5,0
INTELSAT 10-02,2004-022A,2026-07-18T18:09:38.944800,1.00270531,.0000147,0.0528,253.9863,356.2154,317.7541,0,U,28358,999,8087,0,-.18E-6,0
DIRECTV 8,2005-019A,2026-07-18T17:47:24.620352,1.00272165,.0003037,0.0187,61.6379,61.4430,321.2488,0,U,28659,999,7738,0,-.5E-7,0
GALAXY 28 (G-28),2005-022A,2026-07-18T18:13:44.593824,1.00271220,.0002472,3.3769,78.5412,33.7103,70.6442,0,U,28702,999,5229,0,-.208E-5,0
GALAXY 16 (G-16),2006-023A,2026-07-18T16:10:37.678080,1.00271555,.0002629,0.0244,146.3120,330.7179,323.0864,0,U,29236,999,7328,0,-.134E-5,0
DIRECTV 9S,2006-043A,2026-07-18T13:59:38.658048,1.00271531,.0005046,2.5000,80.5247,32.7048,291.8605,0,U,29494,999,5169,0,-.122E-5,0
GALAXY 17 (G-17),2007-016B,2026-07-18T12:49:14.182752,1.00271231,.000369,3.0491,79.5055,36.7359,287.3764,0,U,31307,999,7011,0,-.215E-5,0
INTELSAT 11 (IS-11),2007-044B,2026-07-18T08:02:22.632288,0.99052932,.00043408,3.6447,78.2916,99.6437,227.6151,0,U,32253,999,6875,0,-.221E-5,0
HORIZONS-2,2007-063B,2026-07-18T18:00:23.376384,1.00272886,.0003598,2.6817,80.2401,17.9256,34.6717,0,U,32388,999,6813,0,-.261E-5,0
DIRECTV 11,2008-013A,2026-07-18T13:59:38.658048,1.00271591,.0000074,0.0038,258.4183,198.8034,309.8804,0,U,32729,999,4590,0,-.133E-5,0
GALAXY 18 (G-18),2008-024A,2026-07-18T14:07:38.839008,1.00271527,.0002924,0.0193,80.6595,35.7671,268.8509,0,U,32951,999,4616,0,.18E-6,0
GALAXY 19 (G-19),2008-045A,2026-07-18T13:54:30.802752,1.00270987,.0002494,0.0440,245.8172,241.6064,280.5810,0,U,33376,999,6521,0,-.146E-5,0
FM-5,2009-034A,2026-07-17T23:07:35.120352,1.00271932,.00007245,0.0358,248.5990,112.8401,195.0577,0,U,35493,999,4695,0,-.209E-5,0
INTELSAT 14 (IS-14),2009-064A,2026-07-18T19:07:38.634816,1.00269749,.0002505,0.0191,46.6322,71.3641,60.5183,0,U,36097,999,6092,0,0,0
INTELSAT 15 (IS-15),2009-067A,2026-07-18T20:09:38.617920,1.00272808,.0002329,0.0156,49.0723,67.1648,207.9497,0,U,36106,999,4154,0,-.192E-5,0
DIRECTV 12,2009-075A,2026-07-18T11:14:38.819904,1.00272112,.00002879,0.0377,206.0822,16.0154,140.1053,0,U,36131,999,4686,0,-.111E-5,0
INTELSAT 16 (IS-16),2010-006A,2026-07-18T15:05:38.631840,1.00271780,.0002385,0.0189,63.4364,72.4664,310.7238,0,U,36397,999,5997,0,-.252E-5,0
XM-5,2010-053A,2026-07-18T07:32:40.479360,1.00272616,.00014056,0.0601,263.6204,320.7264,69.7395,0,U,37185,999,5779,0,-.31E-6,0
INTELSAT 17 (IS-17),2010-065B,2026-07-18T18:52:21.848736,1.00272510,.000256,0.0071,89.8196,39.4454,156.4053,0,U,37238,999,5356,0,-.8E-7,0
INTELSAT 28 (IS-28),2011-016A,2026-07-18T18:12:29.715264,1.00271758,.000383,1.8860,82.2414,41.3673,54.3625,0,U,37392,999,5360,0,-.232E-5,0
INTELSAT 18 (IS-18),2011-056A,2026-07-18T17:30:11.271168,1.00273039,.0001882,0.0375,235.7276,252.7167,250.6266,0,U,37834,999,5412,0,.46E-6,0
INTELSAT 22 (IS-22),2012-011A,2026-07-18T19:02:21.679872,1.00272019,.0001842,0.0200,60.6237,68.8371,164.8197,0,U,38098,999,750,0,-.65E-6,0
INTELSAT 19 (IS-19),2012-030A,2026-07-18T17:26:11.652864,1.00272000,.0002933,0.0161,52.0829,64.8445,247.1300,0,U,38356,999,5076,0,-.63E-6,0
INTELSAT 20 (IS-20),2012-043A,2026-07-18T19:02:21.679872,1.00271134,.0001317,0.0146,72.6771,110.0673,107.9381,0,U,38740,999,5106,0,-.31E-6,0
INTELSAT 21 (IS-21),2012-045A,2026-07-18T19:23:38.542272,1.00271992,.00017,0.0462,243.6904,243.9895,41.8395,0,U,38749,999,5084,0,-.291E-5,0
